#Pass ID: 20250120_183101_FENGYUN 3F
#Satellite: FENGYUN 3F
#Configuration: FENGYUN 3F
#Start time: 2025-01-20 18:31:06.030439

#LorettStation: 1.0.0 05.05.2024
#Station: Regia
#Location: 37.494653 lon 55.929028 lat
#TLE: 1 57490U 23111A   25019.56560378  .00000222  00000+0  12521-3 0  9999
#TLE: 2 57490  98.7456  92.4514 0001345 136.2789 223.8494 14.19978660 75971

#Time	Az	El	Level	SNR
#Closed at: 2025-01-20 18:31:01.032484